[{"OBJECT_NAME":"LEMUR-2-GREENBERG","OBJECT_ID":"2017-042N","EPOCH":"2026-03-09T11:05:17.256192","MEAN_MOTION":15.27971352,"ECCENTRICITY":0.00091572,"INCLINATION":97.3781,"RA_OF_ASC_NODE":249.8007,"ARG_OF_PERICENTER":4.0119,"MEAN_ANOMALY":356.1192,"EPHEMERIS_TYPE":0,"CLASSIFICATION_TYPE":"U","NORAD_CAT_ID":42837,"ELEMENT_SET_NO":999,"REV_AT_EPOCH":47314,"BSTAR":0.00072539172,"MEAN_MOTION_DOT":0.00019778,"MEAN_MOTION_DDOT":0},{"OBJECT_NAME":"STARLINK-36053","OBJECT_ID":"2025-281AD","EPOCH":"2026-03-09T03:28:44.292576","MEAN_MOTION":15.2756623,"ECCENTRICITY":0.00011853,"INCLINATION":43.0015,"RA_OF_ASC_NODE":346.4233,"ARG_OF_PERICENTER":290.724,"MEAN_ANOMALY":69.3484,"EPHEMERIS_TYPE":0,"CLASSIFICATION_TYPE":"U","NORAD_CAT_ID":66875,"ELEMENT_SET_NO":999,"REV_AT_EPOCH":1604,"BSTAR":0.00083003608,"MEAN_MOTION_DOT":0.00022639,"MEAN_MOTION_DDOT":0}]
